ONEWEB-0627             
1 55168U 23004AE  25296.59680802  .00000027  00000+0  36883-4 0  9996
2 55168  87.9108  52.9297 0001643  80.3767 279.7550 13.17649834136426
ONEWEB-0628             
1 55169U 23004AF  25296.53516186  .00000230  00000+0  60346-3 0  9990
2 55169  87.8973  37.6595 0001268  81.8119 278.3153 13.12438705136991
ONEWEB-0629             
1 55170U 23004AG  25296.57232058  .00000094  00000+0  20963-3 0  9998
2 55170  87.9112  52.9313 0001389 100.6474 259.4814 13.17647510136428
ONEWEB-0631             
1 55171U 23004AH  25296.66997041 -.00000002  00000+0 -37047-4 0  9992
2 55171  87.9230  22.4031 0002301  92.5401 267.5995 13.18685288138509
ONEWEB-0709             
1 55172U 23004AJ  25296.60806242  .00000125  00000+0  31628-3 0  9991
2 55172  87.8827  68.2026 0002531 101.9763 258.1649 13.11415688134869
ONEWEB-0710             
1 55173U 23004AK  25296.58668194  .00000061  00000+0  12344-3 0  9994
2 55173  87.9110  52.9225 0001666  92.8004 267.3318 13.17648813136424
ONEWEB-0711             
1 55174U 23004AL  25296.65554139  .00000444  00000+0  12168-2 0  9994
2 55174  87.8836  68.1630 0001558  69.2618 290.8677 13.11419186134832
ONEWEB-0713             
1 55175U 23004AM  25296.59789487  .00000481  00000+0  13220-2 0  9995
2 55175  87.8832  68.1795 0001544  86.6111 273.5194 13.11415497134818
ONEWEB-0715             
1 55176U 23004AN  25296.59281431  .00000602  00000+0  16637-2 0  9992
2 55176  87.8831  68.1803 0002338  91.1977 268.9419 13.11416872134851
ONEWEB-0716             
1 55177U 23004AP  25296.57992311  .00000107  00000+0  24323-3 0  9999
2 55177  87.9112  52.9238 0001660 106.8787 253.2527 13.17648049136429
ONEWEB-0717             
1 55178U 23004AQ  25296.56305609  .00000054  00000+0  10483-3 0  9990
2 55178  87.9123  52.8937 0001788  75.7742 284.3588 13.17649165136470
ONEWEB-0719             
1 55179U 23004AR  25296.57318323  .00000105  00000+0  23771-3 0  9990
2 55179  87.9123  52.8741 0001483 104.2502 255.8794 13.17649820136423
ONEWEB-0530             
1 55796U 23029A   25296.50199933  .00000056  00000+0  10571-3 0  9998
2 55796  87.9199 321.6887 0001624  78.5205 281.6111 13.20770000129903
ONEWEB-0534             
1 55797U 23029B   25296.64088875  .00000067  00000+0  13324-3 0  9997
2 55797  87.9194 321.6631 0001827  97.6226 262.5115 13.20769875129928
ONEWEB-0556             
1 55798U 23029C   25296.49568148  .00000067  00000+0  13378-3 0  9996
2 55798  87.9201 321.6899 0001130 102.0642 258.0618 13.20769674129907
ONEWEB-0562             
1 55799U 23029D   25296.10428163  .00000093  00000+0  19748-3 0  9993
2 55799  87.9197 321.7526 0001179  69.6254 290.5006 13.20771676129851
ONEWEB-0563             
1 55800U 23029E   25296.55249963  .00000050  00000+0  90453-4 0  9990
2 55800  87.9201 321.6881 0001778 103.3316 256.8015 13.20769923129906
