[{"OBJECT_NAME":"ONEWEB-0627","OBJECT_ID":"2023-004AE","EPOCH":"2025-10-23T14:19:24.212928","MEAN_MOTION":13.17649834,"ECCENTRICITY":0.0001643,"INCLINATION":87.9108,"RA_OF_ASC_NODE":52.9297,"ARG_OF_PERICENTER":80.3767,"MEAN_ANOMALY":279.755,"EPHEMERIS_TYPE":0,"CLASSIFICATION_TYPE":"U","NORAD_CAT_ID":55168,"ELEMENT_SET_NO":999,"REV_AT_EPOCH":13642,"BSTAR":3.6883e-5,"MEAN_MOTION_DOT":2.7e-7,"MEAN_MOTION_DDOT":0},{"OBJECT_NAME":"ONEWEB-0628","OBJECT_ID":"2023-004AF","EPOCH":"2025-10-23T12:50:37.984704","MEAN_MOTION":13.12438705,"ECCENTRICITY":0.0001268,"INCLINATION":87.8973,"RA_OF_ASC_NODE":37.6595,"ARG_OF_PERICENTER":81.8119,"MEAN_ANOMALY":278.3153,"EPHEMERIS_TYPE":0,"CLASSIFICATION_TYPE":"U","NORAD_CAT_ID":55169,"ELEMENT_SET_NO":999,"REV_AT_EPOCH":13699,"BSTAR":0.00060346,"MEAN_MOTION_DOT":2.3e-6,"MEAN_MOTION_DDOT":0},{"OBJECT_NAME":"ONEWEB-0629","OBJECT_ID":"2023-004AG","EPOCH":"2025-10-23T13:44:08.498112","MEAN_MOTION":13.1764751,"ECCENTRICITY":0.0001389,"INCLINATION":87.9112,"RA_OF_ASC_NODE":52.9313,"ARG_OF_PERICENTER":100.6474,"MEAN_ANOMALY":259.4814,"EPHEMERIS_TYPE":0,"CLASSIFICATION_TYPE":"U","NORAD_CAT_ID":55170,"ELEMENT_SET_NO":999,"REV_AT_EPOCH":13642,"BSTAR":0.00020963,"MEAN_MOTION_DOT":9.4e-7,"MEAN_MOTION_DDOT":0},{"OBJECT_NAME":"ONEWEB-0631","OBJECT_ID":"2023-004AH","EPOCH":"2025-10-23T16:04:45.443424","MEAN_MOTION":13.18685288,"ECCENTRICITY":0.0002301,"INCLINATION":87.923,"RA_OF_ASC_NODE":22.4031,"ARG_OF_PERICENTER":92.5401,"MEAN_ANOMALY":267.5995,"EPHEMERIS_TYPE":0,"CLASSIFICATION_TYPE":"U","NORAD_CAT_ID":55171,"ELEMENT_SET_NO":999,"REV_AT_EPOCH":13850,"BSTAR":-3.7047e-5,"MEAN_MOTION_DOT":-2.0e-8,"MEAN_MOTION_DDOT":0},{"OBJECT_NAME":"ONEWEB-0709","OBJECT_ID":"2023-004AJ","EPOCH":"2025-10-23T14:35:36.593088","MEAN_MOTION":13.11415688,"ECCENTRICITY":0.0002531,"INCLINATION":87.8827,"RA_OF_ASC_NODE":68.2026,"ARG_OF_PERICENTER":101.9763,"MEAN_ANOMALY":258.1649,"EPHEMERIS_TYPE":0,"CLASSIFICATION_TYPE":"U","NORAD_CAT_ID":55172,"ELEMENT_SET_NO":999,"REV_AT_EPOCH":13486,"BSTAR":0.00031628,"MEAN_MOTION_DOT":1.25e-6,"MEAN_MOTION_DDOT":0},{"OBJECT_NAME":"ONEWEB-0710","OBJECT_ID":"2023-004AK","EPOCH":"2025-10-23T14:04:49.319616","MEAN_MOTION":13.17648813,"ECCENTRICITY":0.0001666,"INCLINATION":87.911,"RA_OF_ASC_NODE":52.9225,"ARG_OF_PERICENTER":92.8004,"MEAN_ANOMALY":267.3318,"EPHEMERIS_TYPE":0,"CLASSIFICATION_TYPE":"U","NORAD_CAT_ID":55173,"ELEMENT_SET_NO":999,"REV_AT_EPOCH":13642,"BSTAR":0.00012344,"MEAN_MOTION_DOT":6.1e-7,"MEAN_MOTION_DDOT":0},{"OBJECT_NAME":"ONEWEB-0711","OBJECT_ID":"2023-004AL","EPOCH":"2025-10-23T15:43:58.776096","MEAN_MOTION":13.11419186,"ECCENTRICITY":0.0001558,"INCLINATION":87.8836,"RA_OF_ASC_NODE":68.163,"ARG_OF_PERICENTER":69.2618,"MEAN_ANOMALY":290.8677,"EPHEMERIS_TYPE":0,"CLASSIFICATION_TYPE":"U","NORAD_CAT_ID":55174,"ELEMENT_SET_NO":999,"REV_AT_EPOCH":13483,"BSTAR":0.0012168,"MEAN_MOTION_DOT":4.44e-6,"MEAN_MOTION_DDOT":0},{"OBJECT_NAME":"ONEWEB-0713","OBJECT_ID":"2023-004AM","EPOCH":"2025-10-23T14:20:58.116768","MEAN_MOTION":13.11415497,"ECCENTRICITY":0.0001544,"INCLINATION":87.8832,"RA_OF_ASC_NODE":68.1795,"ARG_OF_PERICENTER":86.6111,"MEAN_ANOMALY":273.5194,"EPHEMERIS_TYPE":0,"CLASSIFICATION_TYPE":"U","NORAD_CAT_ID":55175,"ELEMENT_SET_NO":999,"REV_AT_EPOCH":13481,"BSTAR":0.001322,"MEAN_MOTION_DOT":4.81e-6,"MEAN_MOTION_DDOT":0},{"OBJECT_NAME":"ONEWEB-0715","OBJECT_ID":"2023-004AN","EPOCH":"2025-10-23T14:13:39.156384","MEAN_MOTION":13.11416872,"ECCENTRICITY":0.0002338,"INCLINATION":87.8831,"RA_OF_ASC_NODE":68.1803,"ARG_OF_PERICENTER":91.1977,"MEAN_ANOMALY":268.9419,"EPHEMERIS_TYPE":0,"CLASSIFICATION_TYPE":"U","NORAD_CAT_ID":55176,"ELEMENT_SET_NO":999,"REV_AT_EPOCH":13485,"BSTAR":0.0016637,"MEAN_MOTION_DOT":6.02e-6,"MEAN_MOTION_DDOT":0},{"OBJECT_NAME":"ONEWEB-0716","OBJECT_ID":"2023-004AP","EPOCH":"2025-10-23T13:55:05.356704","MEAN_MOTION":13.17648049,"ECCENTRICITY":0.000166,"INCLINATION":87.9112,"RA_OF_ASC_NODE":52.9238,"ARG_OF_PERICENTER":106.8787,"MEAN_ANOMALY":253.2527,"EPHEMERIS_TYPE":0,"CLASSIFICATION_TYPE":"U","NORAD_CAT_ID":55177,"ELEMENT_SET_NO":999,"REV_AT_EPOCH":13642,"BSTAR":0.00024323,"MEAN_MOTION_DOT":1.07e-6,"MEAN_MOTION_DDOT":0},{"OBJECT_NAME":"ONEWEB-0717","OBJECT_ID":"2023-004AQ","EPOCH":"2025-10-23T13:30:48.046176","MEAN_MOTION":13.17649165,"ECCENTRICITY":0.0001788,"INCLINATION":87.9123,"RA_OF_ASC_NODE":52.8937,"ARG_OF_PERICENTER":75.7742,"MEAN_ANOMALY":284.3588,"EPHEMERIS_TYPE":0,"CLASSIFICATION_TYPE":"U","NORAD_CAT_ID":55178,"ELEMENT_SET_NO":999,"REV_AT_EPOCH":13647,"BSTAR":0.00010483,"MEAN_MOTION_DOT":5.4e-7,"MEAN_MOTION_DDOT":0},{"OBJECT_NAME":"ONEWEB-0719","OBJECT_ID":"2023-004AR","EPOCH":"2025-10-23T13:45:23.031072","MEAN_MOTION":13.1764982,"ECCENTRICITY":0.0001483,"INCLINATION":87.9123,"RA_OF_ASC_NODE":52.8741,"ARG_OF_PERICENTER":104.2502,"MEAN_ANOMALY":255.8794,"EPHEMERIS_TYPE":0,"CLASSIFICATION_TYPE":"U","NORAD_CAT_ID":55179,"ELEMENT_SET_NO":999,"REV_AT_EPOCH":13642,"BSTAR":0.00023771,"MEAN_MOTION_DOT":1.05e-6,"MEAN_MOTION_DDOT":0},{"OBJECT_NAME":"ONEWEB-0530","OBJECT_ID":"2023-029A","EPOCH":"2025-10-23T12:02:52.742112","MEAN_MOTION":13.2077,"ECCENTRICITY":0.0001624,"INCLINATION":87.9199,"RA_OF_ASC_NODE":321.6887,"ARG_OF_PERICENTER":78.5205,"MEAN_ANOMALY":281.6111,"EPHEMERIS_TYPE":0,"CLASSIFICATION_TYPE":"U","NORAD_CAT_ID":55796,"ELEMENT_SET_NO":999,"REV_AT_EPOCH":12990,"BSTAR":0.00010571,"MEAN_MOTION_DOT":5.6e-7,"MEAN_MOTION_DDOT":0},{"OBJECT_NAME":"ONEWEB-0534","OBJECT_ID":"2023-029B","EPOCH":"2025-10-23T15:22:52.788000","MEAN_MOTION":13.20769875,"ECCENTRICITY":0.0001827,"INCLINATION":87.9194,"RA_OF_ASC_NODE":321.6631,"ARG_OF_PERICENTER":97.6226,"MEAN_ANOMALY":262.5115,"EPHEMERIS_TYPE":0,"CLASSIFICATION_TYPE":"U","NORAD_CAT_ID":55797,"ELEMENT_SET_NO":999,"REV_AT_EPOCH":12992,"BSTAR":0.00013324,"MEAN_MOTION_DOT":6.7e-7,"MEAN_MOTION_DDOT":0},{"OBJECT_NAME":"ONEWEB-0556","OBJECT_ID":"2023-029C","EPOCH":"2025-10-23T11:53:46.879872","MEAN_MOTION":13.20769674,"ECCENTRICITY":0.000113,"INCLINATION":87.9201,"RA_OF_ASC_NODE":321.6899,"ARG_OF_PERICENTER":102.0642,"MEAN_ANOMALY":258.0618,"EPHEMERIS_TYPE":0,"CLASSIFICATION_TYPE":"U","NORAD_CAT_ID":55798,"ELEMENT_SET_NO":999,"REV_AT_EPOCH":12990,"BSTAR":0.00013378,"MEAN_MOTION_DOT":6.7e-7,"MEAN_MOTION_DDOT":0},{"OBJECT_NAME":"ONEWEB-0562","OBJECT_ID":"2023-029D","EPOCH":"2025-10-23T02:30:09.932832","MEAN_MOTION":13.20771676,"ECCENTRICITY":0.00011792,"INCLINATION":87.9197,"RA_OF_ASC_NODE":321.7526,"ARG_OF_PERICENTER":69.6254,"MEAN_ANOMALY":290.5006,"EPHEMERIS_TYPE":0,"CLASSIFICATION_TYPE":"U","NORAD_CAT_ID":55799,"ELEMENT_SET_NO":999,"REV_AT_EPOCH":12985,"BSTAR":0.00019748431,"MEAN_MOTION_DOT":9.3e-7,"MEAN_MOTION_DDOT":0},{"OBJECT_NAME":"ONEWEB-0563","OBJECT_ID":"2023-029E","EPOCH":"2025-10-23T13:15:35.968032","MEAN_MOTION":13.20769923,"ECCENTRICITY":0.0001778,"INCLINATION":87.9201,"RA_OF_ASC_NODE":321.6881,"ARG_OF_PERICENTER":103.3316,"MEAN_ANOMALY":256.8015,"EPHEMERIS_TYPE":0,"CLASSIFICATION_TYPE":"U","NORAD_CAT_ID":55800,"ELEMENT_SET_NO":999,"REV_AT_EPOCH":12990,"BSTAR":9.0453e-5,"MEAN_MOTION_DOT":5.0e-7,"MEAN_MOTION_DDOT":0}]
